1 25544U 98067A   24022.21547817  .00021802  00000-0  39246-3 0  9995
2 25544  51.6402 323.6135 0004839 117.3161 242.8321 15.49735823435761
1 25544U 98067A   24022.04063463  .00025857  00000-0  46378-3 0  9994
2 25544  51.6424 324.4752 0005008 115.5522 348.4945 15.49731111435737
1 25544U 98067A   24021.90731613  .00026276  00000-0  47123-3 0  9992
2 25544  51.6421 325.1359 0005047 116.2859 323.4866 15.49725526435715
1 25544U 98067A   24021.71182883  .00025961  00000-0  46588-3 0  9994
2 25544  51.6422 326.1038 0005061 114.7963 313.6318 15.49714193435683
1 25544U 98067A   24021.33698155  .00025877  00000-0  46474-3 0  9996
2 25544  51.6423 327.9609 0005057 112.9091  22.8883 15.49694343435628
1 25544U 98067A   24021.33698155  .00025877  00000-0  46473-3 0  9995
2 25544  51.6423 327.9609 0005057 112.9088  22.8885 15.49694343435626
1 25544U 98067A   24021.24367882  .00021983  00000-0  39641-3 0  9998
2 25544  51.6418 328.4198 0005037 114.3580 220.5580 15.49679194435604
1 25544U 98067A   24021.18371037  .00027030  00000-0  48513-3 0  9995
2 25544  51.6403 328.7233 0004801 113.5558 246.5935 15.49687883435599
1 25544U 98067A   24021.00634203  .00025909  00000-0  46557-3 0  9992
2 25544  51.6419 329.5990 0005065 111.4040 338.5789 15.49676915435572
1 25544U 98067A   24020.87835618  .00021348  00000-0  38550-3 0  9996
2 25544  51.6420 330.2296 0004951 110.9950 344.4936 15.49659864435551
1 25544U 98067A   24020.67856100  .00023841  00000-0  42950-3 0  9992
2 25544  51.6420 331.2221 0005059 109.1245 311.0162 15.49655165435525
1 25544U 98067A   24020.42761635  .00023521  00000-0  42405-3 0  9993
2 25544  51.6417 332.4645 0005091 108.4197 350.8424 15.49642494435486
1 25544U 98067A   24020.37097905  .00021039  00000-0  38035-3 0  9995
2 25544  51.6421 332.7416 0005071 109.3432  33.7475 15.49636107435476
1 25544U 98067A   24020.34537350  .00022744  00000-0  41045-3 0  9994
2 25544  51.6399 332.8743 0004757 110.2915 249.8585 15.49637024435461
1 25544U 98067A   24020.10264619  .00020890  00000-0  37788-3 0  9992
2 25544  51.6421 334.0695 0005080 109.0278 336.1331 15.49623959435433
1 25544U 98067A   24019.90639016  .00021001  00000-0  37995-3 0  9990
2 25544  51.6419 335.0412 0005033 108.2104 321.3898 15.49616242435403
1 25544U 98067A   24019.40356395  .00021061  00000-0  38130-3 0  9999
2 25544  51.6419 337.5306 0005031 105.7369  36.9548 15.49595018435324
1 25544U 98067A   24019.34240294  .00021021  00000-0  38062-3 0  9992
2 25544  51.6423 337.8345 0005147 104.3142  56.9622 15.49592244435319
1 25544U 98067A   24019.20809282  .00019639  00000-0  35630-3 0  9995
2 25544  51.6408 338.5035 0004959 102.2200  29.3022 15.49583730435293
1 25544U 98067A   24019.20376626  .00020993  00000-0  38020-3 0  9997
2 25544  51.6422 338.5207 0005158 104.0809   3.2970 15.49586177435298
1 25544U 98067A   24019.07338782  .00020876  00000-0  37822-3 0  9992
2 25544  51.6417 339.1674 0004987 103.0607 356.5186 15.49580312435277
1 25544U 98067A   24018.43698023  .00021189  00000-0  38411-3 0  9991
2 25544  51.6424 342.3157 0005006 103.1536  43.9256 15.49554393435176
1 25544U 98067A   24018.43698023  .00021385  00000-0  38757-3 0  9992
2 25544  51.6427 342.3169 0004949 101.3994  45.6784 15.49554946435174
1 25544U 98067A   24018.41066015  .00019694  00000-0  35769-3 0  9990
2 25544  51.6402 342.4526 0004806 102.4420 257.7106 15.49551262435164
1 25544U 98067A   24018.36380118  .00020870  00000-0  37850-3 0  9998
2 25544  51.6427 342.6785 0005121 101.7196 356.8658 15.49550055435165
1 25544U 98067A   24018.17401251  .00044046  00000-0  78775-3 0  9991
2 25544  51.6411 343.6233 0005044 104.0075  15.1647 15.49543046435135
1 25544U 98067A   24018.17063450  .00020758  00000-0  37663-3 0  9991
2 25544  51.6428 343.6348 0005114 101.4094 358.9090 15.49541353435139
1 25544U 98067A   24017.91154612  .00020457  00000-0  37148-3 0  9997
2 25544  51.6422 344.9177 0004982 101.5023 352.5784 15.49529252435091
1 25544U 98067A   24017.40311521  .00020175  00000-0  36676-3 0  9997
2 25544  51.6430 347.4364 0005105  99.0617  36.9785 15.49506912435018
1 25544U 98067A   24017.40311521  .00020864  00000-0  37894-3 0  9995
2 25544  51.6429 347.4362 0005137  98.9794  37.0651 15.49509122435013
