OBJECT_NAME,OBJECT_ID,EPOCH,MEAN_MOTION,ECCENTRICITY,INCLINATION,RA_OF_ASC_NODE,ARG_OF_PERICENTER,MEAN_ANOMALY,EPHEMERIS_TYPE,CLASSIFICATION_TYPE,NORAD_CAT_ID,ELEMENT_SET_NO,REV_AT_EPOCH,BSTAR,MEAN_MOTION_DOT,MEAN_MOTION_DDOT
ISS (ZARYA),1998-067A,2024-01-17T09:40:29.154144,15.49506912,.0005105,51.6430,347.4364,99.0617,36.9785,0,U,25544,999,43501,.36676E-3,.20175E-3,0
ISS (ZARYA),1998-067A,2024-01-17T09:40:29.154144,15.49509122,.0005137,51.6429,347.4362,98.9794,37.0651,0,U,25544,999,43501,.37894E-3,.20864E-3,0
ISS (ZARYA),1998-067A,2024-01-17T21:52:37.584768,15.49529252,.0004982,51.6422,344.9177,101.5023,352.5784,0,U,25544,999,43509,.37148E-3,.20457E-3,0
ISS (ZARYA),1998-067A,2024-01-18T04:05:42.820800,15.49541353,.0005114,51.6428,343.6348,101.4094,358.9090,0,U,25544,999,43513,.37663E-3,.20758E-3,0
ISS (ZARYA),1998-067A,2024-01-18T04:10:34.680864,15.49543046,.0005044,51.6411,343.6233,104.0075,15.1647,0,U,25544,999,43513,.78775E-3,.44046E-3,0
ISS (ZARYA),1998-067A,2024-01-18T08:43:52.421952,15.49550055,.0005121,51.6427,342.6785,101.7196,356.8658,0,U,25544,999,43516,.3785E-3,.2087E-3,0
ISS (ZARYA),1998-067A,2024-01-18T09:51:21.036960,15.49551262,.0004806,51.6402,342.4526,102.4420,257.7106,0,U,25544,999,43516,.35769E-3,.19694E-3,0
ISS (ZARYA),1998-067A,2024-01-18T10:29:15.091872,15.49554393,.0005006,51.6424,342.3157,103.1536,43.9256,0,U,25544,999,43517,.38411E-3,.21189E-3,0
ISS (ZARYA),1998-067A,2024-01-18T10:29:15.091872,15.49554946,.0004949,51.6427,342.3169,101.3994,45.6784,0,U,25544,999,43517,.38757E-3,.21385E-3,0
ISS (ZARYA),1998-067A,2024-01-19T01:45:40.707648,15.49580312,.0004987,51.6417,339.1674,103.0607,356.5186,0,U,25544,999,43527,.37822E-3,.20876E-3,0
ISS (ZARYA),1998-067A,2024-01-19T04:53:25.404864,15.49586177,.0005158,51.6422,338.5207,104.0809,3.2970,0,U,25544,999,43529,.3802E-3,.20993E-3,0
ISS (ZARYA),1998-067A,2024-01-19T04:59:39.219648,15.49583730,.0004959,51.6408,338.5035,102.2200,29.3022,0,U,25544,999,43529,.3563E-3,.19639E-3,0
ISS (ZARYA),1998-067A,2024-01-19T08:13:03.614016,15.49592244,.0005147,51.6423,337.8345,104.3142,56.9622,0,U,25544,999,43531,.38062E-3,.21021E-3,0
ISS (ZARYA),1998-067A,2024-01-19T09:41:07.925280,15.49595018,.0005031,51.6419,337.5306,105.7369,36.9548,0,U,25544,999,43532,.3813E-3,.21061E-3,0
ISS (ZARYA),1998-067A,2024-01-19T21:45:12.109824,15.49616242,.0005033,51.6419,335.0412,108.2104,321.3898,0,U,25544,999,43540,.37995E-3,.21001E-3,0
ISS (ZARYA),1998-067A,2024-01-20T02:27:48.630816,15.49623959,.000508,51.6421,334.0695,109.0278,336.1331,0,U,25544,999,43543,.37788E-3,.2089E-3,0
ISS (ZARYA),1998-067A,2024-01-20T08:17:20.270400,15.49637024,.0004757,51.6399,332.8743,110.2915,249.8585,0,U,25544,999,43546,.41045E-3,.22744E-3,0
ISS (ZARYA),1998-067A,2024-01-20T08:54:12.589920,15.49636107,.0005071,51.6421,332.7416,109.3432,33.7475,0,U,25544,999,43547,.38035E-3,.21039E-3,0
ISS (ZARYA),1998-067A,2024-01-20T10:15:46.052640,15.49642494,.0005091,51.6417,332.4645,108.4197,350.8424,0,U,25544,999,43548,.42405E-3,.23521E-3,0
ISS (ZARYA),1998-067A,2024-01-20T16:17:07.670400,15.49655165,.0005059,51.6420,331.2221,109.1245,311.0162,0,U,25544,999,43552,.4295E-3,.23841E-3,0
ISS (ZARYA),1998-067A,2024-01-20T21:04:49.973952,15.49659864,.0004951,51.6420,330.2296,110.9950,344.4936,0,U,25544,999,43555,.3855E-3,.21348E-3,0
ISS (ZARYA),1998-067A,2024-01-21T00:09:07.951392,15.49676915,.0005065,51.6419,329.5990,111.4040,338.5789,0,U,25544,999,43557,.46557E-3,.25909E-3,0
ISS (ZARYA),1998-067A,2024-01-21T04:24:32.575968,15.49687883,.0004801,51.6403,328.7233,113.5558,246.5935,0,U,25544,999,43559,.48513E-3,.2703E-3,0
ISS (ZARYA),1998-067A,2024-01-21T05:50:53.850048,15.49679194,.0005037,51.6418,328.4198,114.3580,220.5580,0,U,25544,999,43560,.39641E-3,.21983E-3,0
ISS (ZARYA),1998-067A,2024-01-21T08:05:15.205920,15.49694343,.0005057,51.6423,327.9609,112.9088,22.8885,0,U,25544,999,43562,.46473E-3,.25877E-3,0
ISS (ZARYA),1998-067A,2024-01-21T08:05:15.205920,15.49694343,.0005057,51.6423,327.9609,112.9091,22.8883,0,U,25544,999,43562,.46474E-3,.25877E-3,0
ISS (ZARYA),1998-067A,2024-01-21T17:05:02.010912,15.49714193,.0005061,51.6422,326.1038,114.7963,313.6318,0,U,25544,999,43568,.46588E-3,.25961E-3,0
ISS (ZARYA),1998-067A,2024-01-21T21:46:32.113632,15.49725526,.0005047,51.6421,325.1359,116.2859,323.4866,0,U,25544,999,43571,.47123E-3,.26276E-3,0
ISS (ZARYA),1998-067A,2024-01-22T00:58:30.832032,15.49731111,.0005008,51.6424,324.4752,115.5522,348.4945,0,U,25544,999,43573,.46378E-3,.25857E-3,0
ISS (ZARYA),1998-067A,2024-01-22T05:10:17.313888,15.49735823,.0004839,51.6402,323.6135,117.3161,242.8321,0,U,25544,999,43576,.39246E-3,.21802E-3,0
